H1 CPF 01  gfz 2022 01 11 01  5111 terrasarx 
H2 0702601  6201 31698    2022 01 11 00 59 42 2022 01 16 00 00 42   120 1 1  0 0 0
H9
10 0 59591  66222.000000  0    -781440.159    967601.303  -6781890.794
10 0 59591  66342.000000  0     131385.760    885419.889  -6836682.716
10 0 59591  66462.000000  0    1040227.240    771968.281  -6772251.782
10 0 59591  66582.000000  0    1928815.962    629421.082  -6589705.348
10 0 59591  66702.000000  0    2781267.054    460735.828  -6292184.283
10 0 59591  66822.000000  0    3582358.331    269595.540  -5884814.588
10 0 59591  66942.000000  0    4317799.214     60333.493  -5374627.210
10 0 59591  67062.000000  0    4974485.996   -162157.653  -4770448.329
10 0 59591  67182.000000  0    5540741.467   -392531.181  -4082758.355
10 0 59591  67302.000000  0    6006530.941   -625104.731  -3323519.464
10 0 59591  67422.000000  0    6363650.949   -853989.386  -2505975.475
10 0 59591  67542.000000  0    6605886.654  -1073226.983  -1644425.272
10 0 59591  67662.000000  0    6729132.509  -1276931.649   -753972.755
10 0 59591  67782.000000  0    6731472.227  -1459432.609    149741.029
10 0 59591  67902.000000  0    6613216.524  -1615414.707   1050818.809
10 0 59591  68022.000000  0    6376895.171  -1740053.002   1933395.291
10 0 59591  68142.000000  0    6027204.889  -1829138.026   2781925.588
10 0 59591  68262.000000  0    5570912.588  -1879187.137   3581467.993
10 0 59591  68382.000000  0    5016717.278  -1887540.721   4317952.984
10 0 59591  68502.000000  0    4375075.420  -1852439.973   4978433.522
10 0 59591  68622.000000  0    3657995.386  -1773084.219   5551313.152
10 0 59591  68742.000000  0    2878803.488  -1649667.899   6026548.462
10 0 59591  68862.000000  0    2051888.143  -1483395.649   6395819.672
10 0 59591  68982.000000  0    1192429.248  -1276476.168   6652670.543
10 0 59591  69102.000000  0     316115.791  -1032094.100   6792615.635
10 0 59591  69222.000000  0    -561141.906   -754360.384   6813212.928
10 0 59591  69342.000000  0   -1423499.999   -448242.905   6714102.705
10 0 59591  69462.000000  0   -2255465.751   -119477.918   6497013.343
10 0 59591  69582.000000  0   -3042174.632    225536.716   6165733.586
10 0 59591  69702.000000  0   -3769656.705    579864.585   5726051.598
10 0 59591  69822.000000  0   -4425088.487    936167.885   5185660.043
10 0 59591  69942.000000  0   -4997024.895   1286856.876   4554027.519
10 0 59591  70062.000000  0   -5475607.209   1624249.214   3842237.591
10 0 59591  70182.000000  0   -5852741.298   1940735.143   3062797.027
10 0 59591  70302.000000  0   -6122243.139   2228945.293   2229417.234
10 0 59591  70422.000000  0   -6279948.715   2481917.252   1356771.476
10 0 59591  70542.000000  0   -6323784.513   2693257.138    460230.892
10 0 59591  70662.000000  0   -6253794.868   2857291.042   -444414.295
10 0 59591  70782.000000  0   -6072126.911   2969202.687  -1341241.708
10 0 59591  70902.000000  0   -5782972.917   3025153.818  -2214485.840
10 0 59591  71022.000000  0   -5392471.389   3022384.738  -3048823.764
10 0 59591  71142.000000  0   -4908569.287   2959291.161  -3829649.004
10 0 59591  71262.000000  0   -4340850.939   2835477.007  -4543328.437
10 0 59591  71382.000000  0   -3700338.237   2651781.803  -5177437.179
10 0 59591  71502.000000  0   -2999267.880   2410282.729  -5720967.262
10 0 59591  71622.000000  0   -2250852.611   2114272.766  -6164508.888
10 0 59591  71742.000000  0   -1469028.419   1768214.520  -6500403.382
10 0 59591  71862.000000  0    -668194.632   1377670.904  -6722862.833
10 0 59591  71982.000000  0     137047.537    949215.038  -6828059.497
10 0 59591  72102.000000  0     932154.504    490321.050  -6814184.204
10 0 59591  72222.000000  0    1702897.302      9236.433  -6681476.180
10 0 59591  72342.000000  0    2435610.969   -485163.004  -6432218.219
10 0 59591  72462.000000  0    3117431.673   -983532.305  -6070702.075
10 0 59591  72582.000000  0    3736520.299  -1476229.164  -5603161.639
10 0 59591  72702.000000  0    4282268.131  -1953495.745  -5037676.664
10 0 59591  72822.000000  0    4745483.309  -2405649.936  -4384044.612
10 0 59591  72942.000000  0    5118551.961  -2823280.342  -3653621.268
10 0 59591  73062.000000  0    5395572.004  -3197441.431  -2859132.623
10 0 59591  73182.000000  0    5572456.555  -3519844.853  -2014458.697
10 0 59591  73302.000000  0    5647002.391  -3783042.109  -1134392.850
10 0 59591  73422.000000  0    5618922.206  -3980594.745   -234381.295
10 0 59591  73542.000000  0    5489838.823  -4107226.689    669753.044
10 0 59591  73662.000000  0    5263240.562  -4158955.572   1562096.540
10 0 59591  73782.000000  0    4944397.951  -4133197.925   2426934.636
10 0 59591  73902.000000  0    4540244.251  -4028844.453   3249037.031
10 0 59591  74022.000000  0    4059224.312  -3846305.811   4013932.250
10 0 59591  74142.000000  0    3511115.167  -3587528.005   4708167.561
10 0 59591  74262.000000  0    2906820.928  -3255975.430   5319547.842
10 0 59591  74382.000000  0    2258150.658  -2856582.850   5837348.216
10 0 59591  74502.000000  0    1577582.351  -2395678.239   6252498.879
10 0 59591  74622.000000  0     878018.885  -1880878.712   6557737.794
10 0 59591  74742.000000  0     172541.289  -1320961.562   6747731.625
10 0 59591  74862.000000  0    -525836.255   -725712.418   6819163.280
10 0 59591  74982.000000  0   -1204405.521   -105753.162   6770785.541
10 0 59591  75102.000000  0   -1850994.425    527647.211   6603441.451
10 0 59591  75222.000000  0   -2454184.610   1162776.777   6320050.626
10 0 59591  75342.000000  0   -3003513.412   1787696.195   5925561.662
10 0 59591  75462.000000  0   -3489657.053   2390462.590   5426871.613
10 0 59591  75582.000000  0   -3904593.024   2959359.017   4832712.140
10 0 59591  75702.000000  0   -4241737.432   3483124.474   4153501.973
10 0 59591  75822.000000  0   -4496055.327   3951179.977   3401168.765
10 0 59591  75942.000000  0   -4664140.918   4353846.129   2588941.437
10 0 59591  76062.000000  0   -4744264.580   4682547.837   1731116.655
10 0 59591  76182.000000  0   -4736385.870   4929999.858    842802.700
10 0 59591  76302.000000  0   -4642132.725   5090367.189    -60353.015
10 0 59591  76422.000000  0   -4464747.788   5159398.858   -962447.374
10 0 59591  76542.000000  0   -4209000.283   5134530.184  -1847612.859
10 0 59591  76662.000000  0   -3881065.397   5014948.626  -2700304.624
10 0 59591  76782.000000  0   -3488378.827   4801625.200  -3505580.281
10 0 59591  76902.000000  0   -3039466.577   4497307.914  -4249364.522
10 0 59591  77022.000000  0   -2543757.341   4106480.515  -4918692.739
10 0 59591  77142.000000  0   -2011382.543   3635289.315  -5501930.339
10 0 59591  77262.000000  0   -1452968.643   3091439.909  -5988967.208
10 0 59591  77382.000000  0    -879424.761   2484064.071  -6371383.504
10 0 59591  77502.000000  0    -301730.871   1823561.361  -6642583.401
10 0 59591  77622.000000  0     269268.717   1121419.802  -6797897.623
10 0 59591  77742.000000  0     823063.674    390017.843  -6834655.741
10 0 59591  77862.000000  0    1349667.211   -357589.901  -6752227.859
10 0 59591  77982.000000  0    1839791.826  -1107901.041  -6552032.722
10 0 59591  78102.000000  0    2285008.932  -1847202.679  -6237515.618
10 0 59591  78222.000000  0    2677892.066  -2561815.690  -5814095.706
10 0 59591  78342.000000  0    3012141.042  -3238343.864  -5289084.044
10 0 59591  78462.000000  0    3282686.154  -3863926.024  -4671568.114
10 0 59591  78582.000000  0    3485767.157  -4426481.530  -3972263.358
10 0 59591  78702.000000  0    3618987.564  -4914946.342  -3203337.983
10 0 59591  78822.000000  0    3681344.502  -5319497.571  -2378210.002
10 0 59591  78942.000000  0    3673230.083  -5631759.632  -1511316.200
10 0 59591  79062.000000  0    3596404.669  -5844984.443   -617859.292
10 0 59591  79182.000000  0    3453941.920  -5954202.958    286463.172
10 0 59591  79302.000000  0    3250145.599  -5956341.788   1185741.235
10 0 59591  79422.000000  0    2990442.357  -5850303.430   2064141.118
10 0 59591  79542.000000  0    2681250.527  -5637004.597   2906194.176
10 0 59591  79662.000000  0    2329829.070  -5319373.841   3697076.303
10 0 59591  79782.000000  0    1944112.112  -4902309.815   4422873.815
10 0 59591  79902.000000  0    1532532.418  -4392600.142   5070831.492
10 0 59591  80022.000000  0    1103839.075  -3798803.457   5629577.069
10 0 59591  80142.000000  0     666911.487  -3131096.640   6089319.311
10 0 59591  80262.000000  0     230575.507  -2401091.998   6442013.168
10 0 59591  80382.000000  0    -196573.565  -1621630.095   6681493.417
10 0 59591  80502.000000  0    -606338.597   -806551.665   6803576.642
10 0 59591  80622.000000  0    -991076.655     29549.689   6806130.944
10 0 59591  80742.000000  0   -1343840.765    871589.197   6689110.692
10 0 59591  80862.000000  0   -1658504.874   1704262.436   6454556.923
10 0 59591  80982.000000  0   -1929870.460   2512322.553   6106564.132
10 0 59591  81102.000000  0   -2153753.138   3280859.678   5651213.129
10 0 59591  81222.000000  0   -2327047.569   3995577.595   5096470.699
10 0 59591  81342.000000  0   -2447770.767   4643064.173   4452057.359
10 0 59591  81462.000000  0   -2515081.927   5211050.025   3729282.149
10 0 59591  81582.000000  0   -2529278.249   5688649.421   2940846.801
10 0 59591  81702.000000  0   -2491766.300   6066577.035   2100622.244
10 0 59591  81822.000000  0   -2405010.043   6337336.358   1223402.175
10 0 59591  81942.000000  0   -2272455.911   6495374.783    324637.330
10 0 59591  82062.000000  0   -2098437.125   6537201.165   -579843.945
10 0 59591  82182.000000  0   -1888059.905   6461463.178  -1474123.699
10 0 59591  82302.000000  0   -1647073.076   6268979.822  -2342486.524
10 0 59591  82422.000000  0   -1381724.761   5962725.872  -3169702.862
10 0 59591  82542.000000  0   -1098612.074   5547776.488  -3941297.845
10 0 59591  82662.000000  0    -804527.260   5031212.134  -4643804.790
99
